[{"OBJECT_NAME":"STARLINK-33950","OBJECT_ID":"2025-087E","EPOCH":"2026-03-09T17:29:57.630336","MEAN_MOTION":15.30192816,"ECCENTRICITY":9.985e-5,"INCLINATION":53.1597,"RA_OF_ASC_NODE":219.517,"ARG_OF_PERICENTER":101.0763,"MEAN_ANOMALY":259.035,"EPHEMERIS_TYPE":0,"CLASSIFICATION_TYPE":"U","NORAD_CAT_ID":63701,"ELEMENT_SET_NO":999,"REV_AT_EPOCH":4920,"BSTAR":0.00043160775,"MEAN_MOTION_DOT":0.00012442,"MEAN_MOTION_DDOT":0},{"OBJECT_NAME":"GEOSCAN 2 (RS92S2)","OBJECT_ID":"2025-155Q","EPOCH":"2026-03-09T23:01:48.939744","MEAN_MOTION":15.28709337,"ECCENTRICITY":0.00085277,"INCLINATION":97.4463,"RA_OF_ASC_NODE":37.5259,"ARG_OF_PERICENTER":140.9505,"MEAN_ANOMALY":219.2352,"EPHEMERIS_TYPE":0,"CLASSIFICATION_TYPE":"U","NORAD_CAT_ID":64890,"ELEMENT_SET_NO":999,"REV_AT_EPOCH":6561,"BSTAR":0.00051551761,"MEAN_MOTION_DOT":0.00014341,"MEAN_MOTION_DDOT":0}]
